OBJECT C                
1 57582U 23117C   24170.10351223  .00006261  00000+0  32842-3 0  9998
2 57582  97.4868 242.1473 0009279 292.6553  67.3698 15.16075104 47328
